[{"OBJECT_NAME":"OBJECT A","OBJECT_ID":"2023-085A","EPOCH":"2026-03-09T21:42:39.504096","MEAN_MOTION":15.28003151,"ECCENTRICITY":0.00073195,"INCLINATION":97.4858,"RA_OF_ASC_NODE":178.2033,"ARG_OF_PERICENTER":32.2499,"MEAN_ANOMALY":327.9186,"EPHEMERIS_TYPE":0,"CLASSIFICATION_TYPE":"U","NORAD_CAT_ID":57004,"ELEMENT_SET_NO":999,"REV_AT_EPOCH":15139,"BSTAR":0.00063583858,"MEAN_MOTION_DOT":0.0001733,"MEAN_MOTION_DDOT":0},{"OBJECT_NAME":"STARLINK-31879","OBJECT_ID":"2024-106R","EPOCH":"2026-03-09T03:21:35.776224","MEAN_MOTION":15.27580603,"ECCENTRICITY":0.00014128,"INCLINATION":43.0029,"RA_OF_ASC_NODE":336.0628,"ARG_OF_PERICENTER":259.6314,"MEAN_ANOMALY":100.4379,"EPHEMERIS_TYPE":0,"CLASSIFICATION_TYPE":"U","NORAD_CAT_ID":59937,"ELEMENT_SET_NO":999,"REV_AT_EPOCH":10048,"BSTAR":-3.8391973e-5,"MEAN_MOTION_DOT":-1.318e-5,"MEAN_MOTION_DDOT":0}]
